STARLINK-36809          
1 67929U 26036AB  26077.50003471  .00030050  00000+0  51715-3 0  9991
2 67929  43.0000 196.6365 0001410 258.7465 201.9923 15.50520597  5067
STARLINK-36865          
1 67930U 26036AC  26077.50003471 -.01907682  00000+0 -31770-1 0  9997
2 67930  43.0007 196.3254 0001232 282.1292 304.5169 15.54707236  5064
STARLINK-36781          
1 67931U 26036AD  26077.50003471 -.01907649  00000+0 -32472-1 0  9991
2 67931  43.0005 196.3713 0001276 279.0030 289.2338 15.54115650  5066
STARLINK-36301          
1 67932U 26037A   26076.91253539  .00325484  00000+0  14845-2 0  9992
2 67932  42.9982 148.1836 0001165   1.0372 359.0502 15.82107586  4551
STARLINK-36852          
1 67933U 26037B   26077.50003471 -.01884938  00000+0 -23296-1 0  9993
2 67933  42.9991 144.9863 0001400 271.9966  38.1917 15.62454686  4611
STARLINK-36861          
1 67934U 26037C   26077.48113475  .00264558  00000+0  13363-2 0  9999
2 67934  42.9986 144.7050 0005300 127.0312 233.1044 15.80047963  4648
STARLINK-36860          
1 67935U 26037D   26077.50003471 -.01916744  00000+0 -18949-1 0  9995
2 67935  42.9991 144.7646 0001450 285.6571 113.2497 15.68029769  4613
STARLINK-36848          
1 67936U 26037E   26077.50003471 -.01882972  00000+0 -20573-1 0  9997
2 67936  42.9992 144.8241 0001449 281.5458  93.4196 15.65532986  4616
STARLINK-36370          
1 67937U 26037F   26077.50003471 -.01945278  00000+0 -18561-1 0  9991
2 67937  42.9990 144.7297 0001304 287.7043 125.7889 15.68930841  4616
STARLINK-36371          
1 67938U 26037G   26077.50003471 -.01954055  00000+0 -15811-1 0  9990
2 67938  42.9989 144.6136 0001307 291.4485 167.9454 15.72823544  4613
STARLINK-36246          
1 67939U 26037H   26077.50003471 -.01895112  00000+0 -20048-1 0  9997
2 67939  42.9990 144.7752 0001523 285.3249 109.3248 15.66345628  4527
STARLINK-36907          
1 67940U 26037J   26076.90508803  .00482279  00000+0  21717-2 0  9999
2 67940  42.9984 148.1227 0002089 303.2284  56.8387 15.81976946  4557
