CCSDS_OMM_VERS = 2.0
CREATION_DATE  = 
ORIGINATOR     = 

OBJECT_NAME    = STARLINK-36809
OBJECT_ID      = 2026-036AB
CENTER_NAME    = EARTH
REF_FRAME      = TEME
TIME_SYSTEM    = UTC
MEAN_ELEMENT_THEORY = SGP/SGP4

EPOCH          = 2026-03-18T12:00:02.998944
MEAN_MOTION    = 15.50520597
ECCENTRICITY   = .000141
INCLINATION    = 43.0000
RA_OF_ASC_NODE = 196.6365
ARG_OF_PERICENTER = 258.7465
MEAN_ANOMALY   = 201.9923

EPHEMERIS_TYPE = 0
CLASSIFICATION_TYPE = U
NORAD_CAT_ID   = 67929
ELEMENT_SET_NO = 999
REV_AT_EPOCH   = 506
BSTAR          = .51715E-3
MEAN_MOTION_DOT = .3005E-3
MEAN_MOTION_DDOT = 0

CCSDS_OMM_VERS = 2.0
CREATION_DATE  = 
ORIGINATOR     = 

OBJECT_NAME    = STARLINK-36865
OBJECT_ID      = 2026-036AC
CENTER_NAME    = EARTH
REF_FRAME      = TEME
TIME_SYSTEM    = UTC
MEAN_ELEMENT_THEORY = SGP/SGP4

EPOCH          = 2026-03-18T12:00:02.998944
MEAN_MOTION    = 15.54707236
ECCENTRICITY   = .0001232
INCLINATION    = 43.0007
RA_OF_ASC_NODE = 196.3254
ARG_OF_PERICENTER = 282.1292
MEAN_ANOMALY   = 304.5169

EPHEMERIS_TYPE = 0
CLASSIFICATION_TYPE = U
NORAD_CAT_ID   = 67930
ELEMENT_SET_NO = 999
REV_AT_EPOCH   = 506
BSTAR          = -.3177E-1
MEAN_MOTION_DOT = -.1907682E-1
MEAN_MOTION_DDOT = 0

CCSDS_OMM_VERS = 2.0
CREATION_DATE  = 
ORIGINATOR     = 

OBJECT_NAME    = STARLINK-36781
OBJECT_ID      = 2026-036AD
CENTER_NAME    = EARTH
REF_FRAME      = TEME
TIME_SYSTEM    = UTC
MEAN_ELEMENT_THEORY = SGP/SGP4

EPOCH          = 2026-03-18T12:00:02.998944
MEAN_MOTION    = 15.54115650
ECCENTRICITY   = .0001276
INCLINATION    = 43.0005
RA_OF_ASC_NODE = 196.3713
ARG_OF_PERICENTER = 279.0030
MEAN_ANOMALY   = 289.2338

EPHEMERIS_TYPE = 0
CLASSIFICATION_TYPE = U
NORAD_CAT_ID   = 67931
ELEMENT_SET_NO = 999
REV_AT_EPOCH   = 506
BSTAR          = -.32472E-1
MEAN_MOTION_DOT = -.1907649E-1
MEAN_MOTION_DDOT = 0

CCSDS_OMM_VERS = 2.0
CREATION_DATE  = 
ORIGINATOR     = 

OBJECT_NAME    = STARLINK-36301
OBJECT_ID      = 2026-037A
CENTER_NAME    = EARTH
REF_FRAME      = TEME
TIME_SYSTEM    = UTC
MEAN_ELEMENT_THEORY = SGP/SGP4

EPOCH          = 2026-03-17T21:54:03.057696
MEAN_MOTION    = 15.82107586
ECCENTRICITY   = .00011657
INCLINATION    = 42.9982
RA_OF_ASC_NODE = 148.1836
ARG_OF_PERICENTER = 1.0372
MEAN_ANOMALY   = 359.0502

EPHEMERIS_TYPE = 0
CLASSIFICATION_TYPE = U
NORAD_CAT_ID   = 67932
ELEMENT_SET_NO = 999
REV_AT_EPOCH   = 455
BSTAR          = .14845044E-2
MEAN_MOTION_DOT = .325484E-2
MEAN_MOTION_DDOT = 0

CCSDS_OMM_VERS = 2.0
CREATION_DATE  = 
ORIGINATOR     = 

OBJECT_NAME    = STARLINK-36852
OBJECT_ID      = 2026-037B
CENTER_NAME    = EARTH
REF_FRAME      = TEME
TIME_SYSTEM    = UTC
MEAN_ELEMENT_THEORY = SGP/SGP4

EPOCH          = 2026-03-18T12:00:02.998944
MEAN_MOTION    = 15.62454686
ECCENTRICITY   = .00014
INCLINATION    = 42.9991
RA_OF_ASC_NODE = 144.9863
ARG_OF_PERICENTER = 271.9966
MEAN_ANOMALY   = 38.1917

EPHEMERIS_TYPE = 0
CLASSIFICATION_TYPE = U
NORAD_CAT_ID   = 67933
ELEMENT_SET_NO = 999
REV_AT_EPOCH   = 461
BSTAR          = -.23296E-1
MEAN_MOTION_DOT = -.1884938E-1
MEAN_MOTION_DDOT = 0

CCSDS_OMM_VERS = 2.0
CREATION_DATE  = 
ORIGINATOR     = 

OBJECT_NAME    = STARLINK-36861
OBJECT_ID      = 2026-037C
CENTER_NAME    = EARTH
REF_FRAME      = TEME
TIME_SYSTEM    = UTC
MEAN_ELEMENT_THEORY = SGP/SGP4

EPOCH          = 2026-03-18T11:32:50.042400
MEAN_MOTION    = 15.80047963
ECCENTRICITY   = .00053
INCLINATION    = 42.9986
RA_OF_ASC_NODE = 144.7050
ARG_OF_PERICENTER = 127.0312
MEAN_ANOMALY   = 233.1044

EPHEMERIS_TYPE = 0
CLASSIFICATION_TYPE = U
NORAD_CAT_ID   = 67934
ELEMENT_SET_NO = 999
REV_AT_EPOCH   = 464
BSTAR          = .13363E-2
MEAN_MOTION_DOT = .264558E-2
MEAN_MOTION_DDOT = 0

CCSDS_OMM_VERS = 2.0
CREATION_DATE  = 
ORIGINATOR     = 

OBJECT_NAME    = STARLINK-36860
OBJECT_ID      = 2026-037D
CENTER_NAME    = EARTH
REF_FRAME      = TEME
TIME_SYSTEM    = UTC
MEAN_ELEMENT_THEORY = SGP/SGP4

EPOCH          = 2026-03-18T12:00:02.998944
MEAN_MOTION    = 15.68029769
ECCENTRICITY   = .000145
INCLINATION    = 42.9991
RA_OF_ASC_NODE = 144.7646
ARG_OF_PERICENTER = 285.6571
MEAN_ANOMALY   = 113.2497

EPHEMERIS_TYPE = 0
CLASSIFICATION_TYPE = U
NORAD_CAT_ID   = 67935
ELEMENT_SET_NO = 999
REV_AT_EPOCH   = 461
BSTAR          = -.18949E-1
MEAN_MOTION_DOT = -.1916744E-1
MEAN_MOTION_DDOT = 0

CCSDS_OMM_VERS = 2.0
CREATION_DATE  = 
ORIGINATOR     = 

OBJECT_NAME    = STARLINK-36848
OBJECT_ID      = 2026-037E
CENTER_NAME    = EARTH
REF_FRAME      = TEME
TIME_SYSTEM    = UTC
MEAN_ELEMENT_THEORY = SGP/SGP4

EPOCH          = 2026-03-18T12:00:02.998944
MEAN_MOTION    = 15.65532986
ECCENTRICITY   = .0001449
INCLINATION    = 42.9992
RA_OF_ASC_NODE = 144.8241
ARG_OF_PERICENTER = 281.5458
MEAN_ANOMALY   = 93.4196

EPHEMERIS_TYPE = 0
CLASSIFICATION_TYPE = U
NORAD_CAT_ID   = 67936
ELEMENT_SET_NO = 999
REV_AT_EPOCH   = 461
BSTAR          = -.20573E-1
MEAN_MOTION_DOT = -.1882972E-1
MEAN_MOTION_DDOT = 0

CCSDS_OMM_VERS = 2.0
CREATION_DATE  = 
ORIGINATOR     = 

OBJECT_NAME    = STARLINK-36370
OBJECT_ID      = 2026-037F
CENTER_NAME    = EARTH
REF_FRAME      = TEME
TIME_SYSTEM    = UTC
MEAN_ELEMENT_THEORY = SGP/SGP4

EPOCH          = 2026-03-18T12:00:02.998944
MEAN_MOTION    = 15.68930841
ECCENTRICITY   = .0001304
INCLINATION    = 42.9990
RA_OF_ASC_NODE = 144.7297
ARG_OF_PERICENTER = 287.7043
MEAN_ANOMALY   = 125.7889

EPHEMERIS_TYPE = 0
CLASSIFICATION_TYPE = U
NORAD_CAT_ID   = 67937
ELEMENT_SET_NO = 999
REV_AT_EPOCH   = 461
BSTAR          = -.18561E-1
MEAN_MOTION_DOT = -.1945278E-1
MEAN_MOTION_DDOT = 0

CCSDS_OMM_VERS = 2.0
CREATION_DATE  = 
ORIGINATOR     = 

OBJECT_NAME    = STARLINK-36371
OBJECT_ID      = 2026-037G
CENTER_NAME    = EARTH
REF_FRAME      = TEME
TIME_SYSTEM    = UTC
MEAN_ELEMENT_THEORY = SGP/SGP4

EPOCH          = 2026-03-18T12:00:02.998944
MEAN_MOTION    = 15.72823544
ECCENTRICITY   = .0001307
INCLINATION    = 42.9989
RA_OF_ASC_NODE = 144.6136
ARG_OF_PERICENTER = 291.4485
MEAN_ANOMALY   = 167.9454

EPHEMERIS_TYPE = 0
CLASSIFICATION_TYPE = U
NORAD_CAT_ID   = 67938
ELEMENT_SET_NO = 999
REV_AT_EPOCH   = 461
BSTAR          = -.15811E-1
MEAN_MOTION_DOT = -.1954055E-1
MEAN_MOTION_DDOT = 0

CCSDS_OMM_VERS = 2.0
CREATION_DATE  = 
ORIGINATOR     = 

OBJECT_NAME    = STARLINK-36246
OBJECT_ID      = 2026-037H
CENTER_NAME    = EARTH
REF_FRAME      = TEME
TIME_SYSTEM    = UTC
MEAN_ELEMENT_THEORY = SGP/SGP4

EPOCH          = 2026-03-18T12:00:02.998944
MEAN_MOTION    = 15.66345628
ECCENTRICITY   = .0001523
INCLINATION    = 42.9990
RA_OF_ASC_NODE = 144.7752
ARG_OF_PERICENTER = 285.3249
MEAN_ANOMALY   = 109.3248

EPHEMERIS_TYPE = 0
CLASSIFICATION_TYPE = U
NORAD_CAT_ID   = 67939
ELEMENT_SET_NO = 999
REV_AT_EPOCH   = 452
BSTAR          = -.20048E-1
MEAN_MOTION_DOT = -.1895112E-1
MEAN_MOTION_DDOT = 0

CCSDS_OMM_VERS = 2.0
CREATION_DATE  = 
ORIGINATOR     = 

OBJECT_NAME    = STARLINK-36907
OBJECT_ID      = 2026-037J
CENTER_NAME    = EARTH
REF_FRAME      = TEME
TIME_SYSTEM    = UTC
MEAN_ELEMENT_THEORY = SGP/SGP4

EPOCH          = 2026-03-17T21:43:19.605792
MEAN_MOTION    = 15.81976946
ECCENTRICITY   = .0002089
INCLINATION    = 42.9984
RA_OF_ASC_NODE = 148.1227
ARG_OF_PERICENTER = 303.2284
MEAN_ANOMALY   = 56.8387

EPHEMERIS_TYPE = 0
CLASSIFICATION_TYPE = U
NORAD_CAT_ID   = 67940
ELEMENT_SET_NO = 999
REV_AT_EPOCH   = 455
BSTAR          = .21716678E-2
MEAN_MOTION_DOT = .482279E-2
MEAN_MOTION_DDOT = 0

